97P/Metcalf-Brewington,e,17.9439,184.0793,230.1529,4.768332,0.0946574,0.46018558,95.3135,11/19.0/2024,2000,g  5.5,6.0
# From MPEC 2021-W31
98P/Takamizawa,e,10.5943,114.5792,157.7069,3.786700,0.1337558,0.56390183,189.2554,11/19.0/2024,2000,g  9.0,8.0
# From MPEC 2024-R10
99P/Kowal,e,4.3391,28.0810,174.5822,6.094974,0.0655008,0.22857764,62.5306,11/19.0/2024,2000,g  4.5,6.0
# From MPEC 2023-OA6
100P/Hartley,e,25.5669,37.6861,181.9526,3.430548,0.1551168,0.41141498,128.9840,11/19.0/2024,2000,g  9.0,8.0
# From MPEC 2024-R10
101P/Chernykh,e,5.0487,116.1384,277.9428,5.815577,0.0702773,0.59597855,124.5015,11/19.0/2024,2000,g 10.0,4.8
# From MPC105241
101P-B/Chernykh,e,5.0501,278.5194,115.5648,5.831102,0.0699968,0.59618917,122.7607,11/19.0/2024,2000,g  9.0,4.0
# From MPEC 2022-C56
102P/Shoemaker,e,25.8614,339.4046,20.6777,3.819321,0.1320459,0.45630204,184.4535,11/19.0/2024,2000,g  6.5,8.0
# From MPEC 2024-NE4
103P/Hartley,e,13.6103,219.7509,181.3158,3.475018,0.1521488,0.69366181,61.3932,11/19.0/2024,2000,g  8.5,8.0
# From MPEC 2023-G31
104P/Kowal,e,5.7023,207.2001,227.2764,3.208675,0.1714808,0.66594211,178.6499,11/19.0/2024,2000,g 16.0,4.0
# From MPEC 2024-F34
105P/SingerBrewster,e,9.1677,192.3983,46.3377,3.472480,0.1523156,0.40904328,350.1337,11/19.0/2024,2000,g 11.5,6.0
# From MPEC 2024-R10
106P/Schuster,e,19.5387,48.8638,353.7877,3.767706,0.1347686,0.59376568,160.0837,11/19.0/2024,2000,g 14.0,4.8
# From MPEC 2015-M77
107P/Wilson-Harrington,e,2.7986,266.7318,95.5197,2.625648,0.2316590,0.63117603,189.3885,11/19.0/2024,2000,g  9.0,4.0
# From MPEC 2022-P82
108P/Ciffreo,e,11.4351,50.2994,354.5210,3.743193,0.1360945,0.55592699,158.6190,11/19.0/2024,2000,g  8.0,12.0
# From  105, 420
109P/Swift-Tuttle,e,113.2608,139.5959,153.2560,26.21127,0.0073447,0.96271803,85.6113,11/19.0/2024,2000,g  4.0,6.0
# From MPEC 2023-KD6
110P/Hartley,e,11.7101,287.4839,167.5294,3.603733,0.1440705,0.31916806,162.3477,11/19.0/2024,2000,g  1.0,12.0
# From MPC 75718
111P/Helin-Roman-Crockett,e,4.2262,89.8103,1.3222,4.152548,0.1164748,0.10720391,145.4895,11/19.0/2024,2000,g  5.0,8.0
# From MPEC 2021-S45
112P/Urata-Niijima,e,24.2059,31.8255,21.5270,3.522982,0.1490522,0.59088840,259.8791,11/19.0/2024,2000,g 14.0,6.0
# From MPEC 2024-JU4
113P/Spitaler,e,5.2874,306.6358,115.6926,3.695233,0.1387527,0.41986777,125.0417,11/19.0/2024,2000,g 13.5,4.0
# From MPEC 2023-A50
114P/Wiseman-Skiff,e,18.3039,271.0268,172.7869,3.540806,0.1479282,0.55609789,261.6402,11/19.0/2024,2000,g 11.5,6.0
# From MPEC 2023-J29
115P/Maury,e,11.6776,176.0081,120.9345,4.271812,0.1116313,0.51754628,175.8882,11/19.0/2024,2000,g 10.5,6.0
# From MPEC 2024-RQ6
116P/Wild,e,3.6039,20.9643,173.1766,3.486813,0.1513774,0.37043534,129.6394,11/19.0/2024,2000,g  2.5,10.0
# From MPEC 2024-VJ2
117P/Helin-Roman-Alu,e,8.6989,58.8258,224.2147,4.106613,0.1184345,0.25490024,101.9214,11/19.0/2024,2000,g  2.5,8.0
# From MPEC 2024-MB8
118P/Shoemaker-Levy,e,10.0906,142.0683,314.9164,3.348620,0.1608442,0.45380687,116.6769,11/19.0/2024,2000,g 12.0,4.0
# From MPEC 2024-R10
119P/Parker-Hartley,e,7.3926,104.5476,322.2268,3.808274,0.1326208,0.38829517,110.0206,11/19.0/2024,2000,g  3.5,8.0
# From MPEC 2022-CN4
120P/Mueller,e,8.4839,358.7162,36.7561,3.968952,0.1246495,0.37447412,160.9457,11/19.0/2024,2000,g 12.0,4.0
# From MPEC 2024-JU4
121P/Shoemaker-Holt,e,20.1621,94.1068,11.8493,4.587505,0.1003088,0.18665545,50.9589,11/19.0/2024,2000,g  6.5,8.0
# From MPC 75718
122P/de Vico,e,86.0340,79.7429,12.9973,17.63086,0.0133135,0.96253811,141.7592,11/19.0/2024,2000,g  7.5,5.2
# From MPEC 2021-F20
123P/West-Hartley,e,15.2805,45.9005,103.9852,3.882532,0.1288343,0.44440248,273.3755,11/19.0/2024,2000,g 12.2,4.0
# From MPEC 2024-UQ8
124P/Mrkos,e,31.4176,0.0251,185.1385,3.375368,0.1589360,0.48648057,267.5461,11/19.0/2024,2000,g 13.5,2.8
# From MPEC 2024-UA9
125P/Spacewatch,e,9.9854,153.1486,87.1276,3.128459,0.1781182,0.51202346,45.7287,11/19.0/2024,2000,g 13.0,6.0
# From MPEC 2024-JU4
126P/IRAS,e,45.8715,357.8568,356.5725,5.630364,0.0737733,0.69621042,37.0934,11/19.0/2024,2000,g  6.0,8.0
# From MPEC 2024-R10
127P/Holt-Olmstead,e,14.2985,13.6134,6.3304,3.453626,0.1535646,0.35904248,127.7200,11/19.0/2024,2000,g 11.0,6.0
# From MPC 89014
128P/Shoemaker-Holt,e,4.3705,214.3312,210.4302,4.483841,0.1038075,0.32244160,297.2448,11/19.0/2024,2000,g  8.5,4.0
# From MPEC 2024-R10
129P/Shoemaker-Levy,e,3.4423,184.8537,307.6968,4.292910,0.1108093,0.08581471,79.5513,11/19.0/2024,2000,g 11.0,4.0
# From MPEC 2024-VJ2
130P/McNaught-Hughes,e,6.0635,70.1787,246.1600,3.382296,0.1584479,0.46094409,34.5496,11/19.0/2024,2000,g 10.0,6.0
# From MPEC 2024-R10
131P/Mueller,e,7.3617,214.1444,179.2035,3.675909,0.1398482,0.34488040,296.5784,11/19.0/2024,2000,g 11.0,4.0
# From MPEC 2024-BE0
132P/Helin-Roman-Alu,e,5.3796,173.9888,216.4860,3.891522,0.1283881,0.56433549,141.4601,11/19.0/2024,2000,g 11.0,6.0
# From MPC 94676
133P/Elst-Pizarro,e,1.3898,160.0999,131.9015,3.163602,0.1751585,0.15580195,33.7618,11/19.0/2024,2000,g 15.4,2.0
# From MPC 89012
134P/Kowal-Vavrova,e,4.3339,202.0016,18.7067,6.270429,0.0627709,0.58529631,242.1200,11/19.0/2024,2000,g 11.5,4.0
# From MPEC 2024-C04
135P/Shoemaker-Levy,e,6.0636,213.0198,22.4069,3.801202,0.1329911,0.29377411,127.2960,11/19.0/2024,2000,g  7.0,8.0
# From MPEC 2024-VB7
136P/Mueller,e,9.4274,137.4213,225.2687,4.184934,0.1151254,0.29308930,354.7932,11/19.0/2024,2000,g 11.0,4.0
# From MPEC 2023-J29
137P/Shoemaker-Levy,e,4.8606,232.9235,141.2279,4.522946,0.1024641,0.57328553,221.8911,11/19.0/2024,2000,g 11.0,4.0
# From MPEC 2016-U66
138P/Shoemaker-Levy,e,10.0984,309.2757,95.6675,3.617978,0.1432205,0.53162745,289.7873,11/19.0/2024,2000,g 15.0,6.0
# From MPEC 2020-HN5
139P/Vaisala-Oterma,e,2.3376,242.1842,165.9199,4.514712,0.1027446,0.24839030,259.7833,11/19.0/2024,2000,g  9.5,4.0
# From MPEC 2015-E14
140P/Bowell-Skiff,e,3.7262,343.3783,172.2001,6.410072,0.0607309,0.69560647,207.4290,11/19.0/2024,2000,g 11.5,6.0
# From MPEC 2024-R10
141P/Machholz,e,13.9635,241.7764,153.6436,3.057236,0.1843786,0.73599419,264.1412,11/19.0/2024,2000,g 12.0,12.0
# From MPEC 2015-KD9
141P-A/Machholz,e,13.9418,153.5232,241.9094,3.057438,0.1843604,0.73601163,264.0832,11/19.0/2024,2000,g 12.0,12.0
# From MPC 24216
141P-B/Machholz,e,13.9857,153.5990,241.7986,3.055817,0.1845071,0.73577072,265.4792,11/19.0/2024,2000,g  9.0,4.0
# From MPC 37026
141P-D/Machholz,e,13.8337,153.2498,242.1574,3.065926,0.1835953,0.73696229,259.8473,11/19.0/2024,2000,g  9.0,4.0
# From MPEC 2015-R12
141P-E/Machholz,e,12.8152,246.1856,149.2667,3.012914,0.1884620,0.75023267,359.9529,09/19.0/1994,2000,g  9.0,4.0
# From MPEC 2015-R12
141P-F/Machholz,e,12.7898,246.1881,149.2374,3.010224,0.1887147,0.75000946,359.9630,09/19.0/1994,2000,g  9.0,4.0
# From MPEC 2015-R12
141P-G/Machholz,e,12.8259,246.3146,149.0784,3.005818,0.1891298,0.74964304,359.9802,09/19.0/1994,2000,g  9.0,4.0
# From MPC 95735
141P-H/Machholz,e,12.8431,246.0900,149.4500,3.008012,0.1889230,0.74682218,359.9270,08/24.0/2015,2000,g 18.5,4.0
# From MPEC 2022-SU8
141P-I/Machholz,e,13.9417,153.4777,241.9195,3.047911,0.1852255,0.73523816,265.4347,11/19.0/2024,2000,g 17.5,4.0
# From MPEC 2024-C04
142P/Ge-Wang,e,12.2473,175.9527,174.0778,5.003153,0.0880721,0.49625352,113.3531,11/19.0/2024,2000,g  8.5,6.0
# From MPEC 2023-XP6
143P/Kowal-Mrkos,e,5.7331,243.2586,307.1310,4.699055,0.0967583,0.40286707,286.1043,11/19.0/2024,2000,g 13.5,2.0
# From MPEC 2024-M41
144P/Kushida,e,3.9320,242.9238,216.3383,3.832364,0.1313723,0.63494445,39.1761,11/19.0/2024,2000,g  8.5,8.0
# From MPC108598
145P/Shoemaker-Levy,e,11.2767,26.8037,10.3521,4.131829,0.1173520,0.54257831,308.5005,11/19.0/2024,2000,g 13.5,4.0
# From MPEC 2024-VJ2
146P/Shoemaker-LINEAR,e,23.1220,53.3744,317.0779,4.027863,0.1219248,0.64757142,12.8699,11/19.0/2024,2000,g 15.0,4.0
# From MPEC 2024-UQ8
147P/Kushida-Muramatsu,e,2.3115,91.6669,348.5700,4.009645,0.1227567,0.21193552,42.6728,11/19.0/2024,2000,g 14.0,4.0
# From MPEC 2024-JU4
148P/Anderson-LINEAR,e,3.6590,89.1952,8.0648,3.619947,0.1431037,0.55036230,127.2090,11/19.0/2024,2000,g 16.0,2.0
# From MPEC 2023-J29
149P/Mueller,e,34.2325,143.7988,30.3145,4.127127,0.1175526,0.32434517,270.8950,11/19.0/2024,2000,g  8.0,8.0
# From MPEC 2024-NE4
150P/LONEOS,e,18.5481,272.0560,246.1191,3.871178,0.1294015,0.54909266,32.5472,11/19.0/2024,2000,g 13.5,4.0
# From MPEC 2022-K19
151P/Helin,e,4.7263,143.1419,216.1542,5.765032,0.0712035,0.57292143,236.6526,11/19.0/2024,2000,g 10.0,6.0
# From MPEC 2024-UA9
152P/Helin-Lawrence,e,9.8792,91.7800,164.4470,4.485120,0.1037631,0.30737220,107.8883,11/19.0/2024,2000,g 11.5,4.0
# From MPC 46101
153P/Ikeya-Zhang,e,28.4719,93.7762,34.2690,50.40095,0.0027545,0.99008205,0.0000,03/08.8760/2002,2000,g  9.0,4.0
# From MPEC 2024-VB7
154P/Brewington,e,17.6346,343.0034,47.9413,4.798223,0.0937742,0.67638796,14.8866,11/19.0/2024,2000,g  2.5,12.0
# From MPEC 2022-YN2
155P/Shoemaker,e,6.4099,97.1571,14.5207,6.571141,0.0585117,0.72754144,107.0327,11/19.0/2024,2000,g 10.0,4.8
# From MPEC 2023-J29
156P/Russell-LINEAR,e,17.2659,35.3401,0.5181,3.462542,0.1529719,0.61503501,223.5070,11/19.0/2024,2000,g 15.5,2.0
# From MPEC 2024-D33
157P/Tritton,e,12.4229,287.5046,155.1524,3.547478,0.1475110,0.55686364,118.1474,11/19.0/2024,2000,g 10.0,4.0
# From MPEC 2022-VC5
157P-B/Tritton,e,12.4246,153.8983,287.1759,3.102534,0.1803554,0.49994227,144.7753,11/19.0/2024,2000,g 15.7,4.0
# From MPEC 2024-VJ2
158P/Kowal-LINEAR,e,7.3744,125.2103,223.5365,5.629748,0.0737854,0.11816340,63.1283,11/19.0/2024,2000,g  9.0,4.0
# From MPEC 2024-DC6
159P/LONEOS,e,23.4885,54.9391,4.6922,5.854091,0.0695849,0.38275907,164.8537,11/19.0/2024,2000,g 10.0,4.0
# From MPEC 2022-K19
160P/LINEAR,e,15.5983,333.3607,12.7909,3.778878,0.1341714,0.52523408,243.3941,11/19.0/2024,2000,g 15.5,2.0
# From MPC 75721
161P/Hartley-IRAS,e,95.8186,1.5353,47.0714,7.713309,0.0460090,0.83575124,325.9976,11/19.0/2024,2000,g  8.5,6.0
# From MPEC 2024-LE0
162P/SidingSpring,e,27.5583,30.8840,357.2291,3.091987,0.1812790,0.58304079,261.2481,11/19.0/2024,2000,g 12.0,4.0
# From MPEC 2021-S45
